ONEWEB-0055             
1 45443U 20020V   20121.91668981  .00006689  00000-0  39786-3 0  9993
2 45443  87.4690 124.7983 0028136 141.4372 123.6792 15.10748634  6119
ONEWEB-0093             
1 45444U 20020W   20121.25001157 -.00013252  00000-0 -63974-3 0  9999
2 45444  87.4397 124.9782 0028553 144.3233 271.3560 15.18510292  6023
ONEWEB-0029             
1 45445U 20020X   20121.91668981  .00056239  00000-0  36508-2 0  9999
2 45445  87.4600 124.8259 0029392 142.6035 318.8889 15.07454111  6118
ONEWEB-0068             
1 45446U 20020Y   20121.91668981 -.00066249  00000-0 -44148-2 0  9993
2 45446  87.4601 124.8439 0029545 144.9852 259.2037 15.07129736  6117
ONEWEB-0046             
1 45447U 20020Z   20121.91668981 -.00027813  00000-0 -18827-2 0  9993
2 45447  87.4673 124.8494 0029474 145.0671 192.6405 15.06389757  6108
ONEWEB-0063             
1 45448U 20020AA  20121.91668981 -.00072719  00000-0 -46511-2 0  9990
2 45448  87.4577 124.8342 0029175 147.5946 321.2723 15.08675113  6114
ONEWEB-0019             
1 45449U 20020AB  20121.91668981  .00067318  00000-0  68570-2 0  9997
2 45449  87.5031 125.1464 0029342 149.2612   0.2577 14.90066740  6071
ONEWEB-0094             
1 45450U 20020AC  20121.91668981 -.00024372  00000-0 -17370-2 0  9996
2 45450  87.4567 124.8698 0028643 149.9646  55.3745 15.04482670  6100
ONEWEB-0087             
1 45451U 20020AD  20121.91668981  .00061523  00000-0  63485-2 0  9992
2 45451  87.4730 125.0623 0028024 151.9693 146.7503 14.89604801  6079
ONEWEB-0082             
1 45452U 20020AE  20121.91668981 -.00053412  00000-0 -39977-2 0  9992
2 45452  87.4391 124.8718 0028547 152.0626 307.3399 15.02766092  6102
ONEWEB-0050             
1 45453U 20020AF  20122.00001157  .00011710  00000-0  68575-3 0  9990
2 45453  87.5175 124.8479 0027223 150.5243  25.8744 15.11389824  6128
ONEWEB-0034             
1 45454U 20020AG  20121.25001157 -.00013169  00000-0 -93251-3 0  9998
2 45454  87.4387 125.1006 0026676 152.6651 252.0497 15.04755796  6003
ONEWEB-0060             
1 45455U 20020AH  20121.41667824  .00055179  00000-0  54353-2 0  9990
2 45455  87.4712 125.3998 0025563 153.0888 271.6627 14.91550438  5988
ONEWEB-0086             
1 45456U 20020AJ  20121.25001157 -.00013935  00000-0 -12555-2 0  9998
2 45456  87.4592 125.3964 0025531 152.5818 249.4233 14.95561543  1884
ONEWEB-0088             
1 45457U 20020AK  20122.00001157  .00010593  00000-0  10926-2 0  9998
2 45457  87.4501 125.1815 0024910 150.1246  26.5252 14.89882419  6068
